X,Y,OBJECTID,SCHOOL_NAME,SCHOOL_TYPE,TYPE_DESC,GRADES,ADDRESS,CITY,ZIP,WEB_ADDRESS,PHONE,REGION,SCH_YR,CreationDate,Creator,EditDate,Editor
-77.264810598451,38.9466317649954,3990,COLVIN RUN,ES,Elementary School,K-6,1400 TRAP RD,VIENNA,22182,https://colvinrunes.fcps.edu/,7037573000,1,2021_22,2021/11/06 05:02:34.558+00,FairfaxCounty,2021/11/06 05:02:34.558+00,FairfaxCounty
-77.4045884272331,38.9463751301116,3991,MCNAIR,ES,Elementary School,K-2,2499 THOMAS JEFFERSON DR,HERNDON,20171,https://mcnaires.fcps.edu/,7037934800,5,2021_22,2021/11/06 05:02:34.558+00,FairfaxCounty,2021/11/06 05:02:34.558+00,FairfaxCounty
-77.4191932903693,38.9520856051523,3992,COATES,ES,Elementary School,K-6,2480 RIVER BIRCH RD,HERNDON,20171,https://coateses.fcps.edu/,7037133000,5,2021_22,2021/11/06 05:02:34.558+00,FairfaxCounty,2021/11/06 05:02:34.558+00,FairfaxCounty
-77.1746119310306,38.9353402365019,3993,FRANKLIN SHERMAN,ES,Elementary School,K-6,6633 BRAWNER ST,MCLEAN,22101,https://franklinshermanes.fcps.edu/,7035067900,1,2021_22,2021/11/06 05:02:34.558+00,FairfaxCounty,2021/11/06 05:02:34.558+00,FairfaxCounty
-77.228440973071,38.9394067360196,3994,SPRING HILL,ES,Elementary School,K-6,8201 LEWINSVILLE RD,MCLEAN,22102,https://springhilles.fcps.edu/,7035063400,1,2021_22,2021/11/06 05:02:34.558+00,FairfaxCounty,2021/11/06 05:02:34.558+00,FairfaxCounty
-77.3202214852457,38.9402710496429,3995,SUNRISE VALLEY,ES,Elementary School,K-6,10824 CROSS SCHOOL RD,RESTON,20191,https://sunrisevalleyes.fcps.edu/,7037153800,1,2021_22,2021/11/06 05:02:34.558+00,FairfaxCounty,2021/11/06 05:02:34.558+00,FairfaxCounty
-77.3429757926263,38.9367391154123,3996,TERRASET,ES,Elementary School,K-6,11411 RIDGE HEIGHTS RD,RESTON,20191,https://terrasetes.fcps.edu/,7033905600,1,2021_22,2021/11/06 05:02:34.558+00,FairfaxCounty,2021/11/06 05:02:34.558+00,FairfaxCounty
-77.3614994004498,38.9322275756603,3997,HUNTERS WOODS,ES,Elementary School,K-6,2401 COLTS NECK RD,RESTON,20191,https://hunterswoodses.fcps.edu/,7032627400,1,2021_22,2021/11/06 05:02:34.558+00,FairfaxCounty,2021/11/06 05:02:34.558+00,FairfaxCounty
-77.3710324118935,38.9427106791701,3998,DOGWOOD,ES,Elementary School,K-6,12300 GLADE DR,RESTON,20191,https://dogwoodes.fcps.edu/,7032623100,1,2021_22,2021/11/06 05:02:34.558+00,FairfaxCounty,2021/11/06 05:02:34.558+00,FairfaxCounty
-77.4143931786717,38.9356907789072,3999,FLORIS,ES,Elementary School,K-6,2708 CENTREVILLE RD,HERNDON,20171,https://florises.fcps.edu/,7035612900,5,2021_22,2021/11/06 05:02:34.558+00,FairfaxCounty,2021/11/06 05:02:34.558+00,FairfaxCounty
-77.1554261516233,38.9186463420948,4000,CHESTERBROOK,ES,Elementary School,K-6,1753 KIRBY RD,MCLEAN,22101,https://chesterbrookes.fcps.edu/,7037148200,2,2021_22,2021/11/06 05:02:34.558+00,FairfaxCounty,2021/11/06 05:02:34.558+00,FairfaxCounty
-77.1753473851181,38.9214337466257,4001,KENT GARDENS,ES,Elementary School,K-6,1717 MELBOURNE DR,MCLEAN,22101,https://kentgardenses.fcps.edu/,7033945600,2,2021_22,2021/11/06 05:02:34.558+00,FairfaxCounty,2021/11/06 05:02:34.558+00,FairfaxCounty
-77.2922299346547,39.0015003228284,4002,GREAT FALLS,ES,Elementary School,K-6,701 WALKER RD,GREAT FALLS,22066,https://greatfallses.fcps.edu/,7037572100,1,2021_22,2021/11/06 05:02:34.558+00,FairfaxCounty,2021/11/06 05:02:34.558+00,FairfaxCounty
-77.3283013375431,38.9935707661698,4003,FORESTVILLE,ES,Elementary School,K-6,1085 UTTERBACK STORE RD,GREAT FALLS,22066,https://forestvillees.fcps.edu/,7034046000,1,2021_22,2021/11/06 05:02:34.558+00,FairfaxCounty,2021/11/06 05:02:34.558+00,FairfaxCounty
-77.3872712723171,38.9964554189877,4052,DRANESVILLE,ES,Elementary School,K-6,1515 POWELLS TAVERN PL,HERNDON,20170,https://dranesvillees.fcps.edu/,7033265200,1,2021_22,2021/11/06 05:02:34.558+00,FairfaxCounty,2021/11/06 05:02:34.558+00,FairfaxCounty
-77.3379650653327,38.9797555253497,4053,ALDRIN,ES,Elementary School,K-6,11375 CENTER HARBOR RD,RESTON,20194,https://aldrines.fcps.edu/,7039043800,1,2021_22,2021/11/06 05:02:34.558+00,FairfaxCounty,2021/11/06 05:02:34.558+00,FairfaxCounty
-77.3583447166987,38.9802097311778,4054,ARMSTRONG,ES,Elementary School,K-6,11900 LAKE NEWPORT RD,RESTON,20194,https://armstronges.fcps.edu/,7033754800,1,2021_22,2021/11/06 05:02:34.558+00,FairfaxCounty,2021/11/06 05:02:34.558+00,FairfaxCounty
-77.1952227458579,38.9039695452768,4055,LEMON ROAD,ES,Elementary School,K-6,7230 IDYLWOOD RD,FALLS CHURCH,22043,https://lemonroades.fcps.edu/,7037146400,2,2021_22,2021/11/06 05:02:34.558+00,FairfaxCounty,2021/11/06 05:02:34.558+00,FairfaxCounty
-77.2296010986564,38.9113289079096,4056,FREEDOM HILL,ES,Elementary School,K-6,1945 LORD FAIRFAX RD,VIENNA,22182,https://freedomhilles.fcps.edu/,7035067800,1,2021_22,2021/11/06 05:02:34.558+00,FairfaxCounty,2021/11/06 05:02:34.558+00,FairfaxCounty
-77.4088374943327,38.9131104564052,4057,OAK HILL,ES,Elementary School,K-6,3210 KINROSS CIR,HERNDON,20171,https://oakhilles.fcps.edu/,7034673500,5,2021_22,2021/11/06 05:02:34.558+00,FairfaxCounty,2021/11/06 05:02:34.558+00,FairfaxCounty
-77.3767863516461,38.9759213821679,4058,HERNDON,ES,Elementary School,K-6,630 DRANESVILLE RD,HERNDON,20170,https://herndones.fcps.edu/,7033263100,1,2021_22,2021/11/06 05:02:34.558+00,FairfaxCounty,2021/11/06 05:02:34.558+00,FairfaxCounty
-77.391213163611,38.9837001653079,4059,CLEARVIEW,ES,Elementary School,K-6,12635 BUILDERS RD,HERNDON,20170,https://clearviewes.fcps.edu/,7037086000,1,2021_22,2021/11/06 05:02:34.558+00,FairfaxCounty,2021/11/06 05:02:34.558+00,FairfaxCounty
-77.3295499137997,38.9688521611073,4060,FOREST EDGE,ES,Elementary School,K-6,1501 BECONTREE LN,RESTON,20190,https://forestedgees.fcps.edu/,7039258000,1,2021_22,2021/11/06 05:02:34.558+00,FairfaxCounty,2021/11/06 05:02:34.558+00,FairfaxCounty
-77.406913768588,38.9612876003889,4061,HUTCHISON,ES,Elementary School,K-6,13209 PARCHER AVE,HERNDON,20170,https://hutchisones.fcps.edu/,7039258300,1,2021_22,2021/11/06 05:02:34.558+00,FairfaxCounty,2021/11/06 05:02:34.558+00,FairfaxCounty
-77.1834348889469,38.8626578833917,4062,WESTLAWN,ES,Elementary School,K-6,3200 WESTLEY RD,FALLS CHURCH,22042,https://westlawnes.fcps.edu/,7032415100,2,2021_22,2021/11/06 05:02:34.558+00,FairfaxCounty,2021/11/06 05:02:34.558+00,FairfaxCounty
-77.2087490345637,38.870716215019,4063,PINE SPRING,ES,Elementary School,K-6,7607 WILLOW LN,FALLS CHURCH,22042,https://pinespringes.fcps.edu/,5712264400,2,2021_22,2021/11/06 05:02:34.558+00,FairfaxCounty,2021/11/06 05:02:34.558+00,FairfaxCounty
-77.2479493025868,38.8697789683497,4064,FAIRHILL,ES,Elementary School,K-6,3001 CHICHESTER LN,FAIRFAX,22031,https://fairhilles.fcps.edu/,7032088100,2,2021_22,2021/11/06 05:02:34.558+00,FairfaxCounty,2021/11/06 05:02:34.558+00,FairfaxCounty
-77.2779608994305,38.8985457569566,4065,LOUISE ARCHER,ES,Elementary School,K-6,324 NUTLEY ST NW,VIENNA,22180,https://archeres.fcps.edu/,7039376200,1,2021_22,2021/11/06 05:02:34.558+00,FairfaxCounty,2021/11/06 05:02:34.558+00,FairfaxCounty
-77.3789088629837,38.8892540838116,4066,NAVY,ES,Elementary School,K-6,3500 WEST OX RD,FAIRFAX,22033,https://navyes.fcps.edu/,7032627100,1,2021_22,2021/11/06 05:02:34.558+00,FairfaxCounty,2021/11/06 05:02:34.558+00,FairfaxCounty
-77.4110162097047,38.890364081516,4067,LEES CORNER,ES,Elementary School,K-6,13500 HOLLINGER AVE,FAIRFAX,22033,https://leescorneres.fcps.edu/,7032273500,5,2021_22,2021/11/06 05:02:34.558+00,FairfaxCounty,2021/11/06 05:02:34.558+00,FairfaxCounty
-77.2059161748796,38.8887827328706,4068,SHREVEWOOD,ES,Elementary School,K-6,7525 SHREVE RD,FALLS CHURCH,22043,https://shrevewoodes.fcps.edu/,7036456600,2,2021_22,2021/11/06 05:02:34.558+00,FairfaxCounty,2021/11/06 05:02:34.558+00,FairfaxCounty
-77.1979459190636,38.8797692947546,4069,TIMBER LANE,ES,Elementary School,K-6,2737 WEST ST,FALLS CHURCH,22046,https://timberlanees.fcps.edu/,7032065300,2,2021_22,2021/11/06 05:02:34.558+00,FairfaxCounty,2021/11/06 05:02:34.558+00,FairfaxCounty
-77.1908090839099,38.8765411656249,4070,GRAHAM ROAD,ES,Elementary School,K-6,2831 GRAHAM RD,FALLS CHURCH,22042,https://grahamroades.fcps.edu/,5712262700,2,2021_22,2021/11/06 05:02:34.558+00,FairfaxCounty,2021/11/06 05:02:34.558+00,FairfaxCounty
-77.22950319053,38.8846924140451,4071,STENWOOD,ES,Elementary School,K-6,2620 GALLOWS RD,VIENNA,22180,https://stenwoodes.fcps.edu/,7032087600,2,2021_22,2021/11/06 05:02:34.558+00,FairfaxCounty,2021/11/06 05:02:34.558+00,FairfaxCounty
-77.245618866707,38.9211266661727,4072,WESTBRIAR,ES,Elementary School,K-6,1741 PINE VALLEY DR,VIENNA,22182,https://westbriares.fcps.edu/,7039371700,2,2021_22,2021/11/06 05:02:34.558+00,FairfaxCounty,2021/11/06 05:02:34.558+00,FairfaxCounty
-77.2665351173363,38.9176458687567,4073,WOLFTRAP,ES,Elementary School,K-6,1903 BEULAH RD,VIENNA,22182,https://wolftrapes.fcps.edu/,7033197300,2,2021_22,2021/11/06 05:02:34.558+00,FairfaxCounty,2021/11/06 05:02:34.558+00,FairfaxCounty
-77.3822713015142,38.9280364878524,4074,FOX MILL,ES,Elementary School,K-6,2611 VIKING DR,HERNDON,20171,https://foxmilles.fcps.edu/,7032622700,1,2021_22,2021/11/06 05:02:34.558+00,FairfaxCounty,2021/11/06 05:02:34.558+00,FairfaxCounty
-77.1655272340129,38.8198138640294,4075,WEYANOKE,ES,Elementary School,K-5,6520 BRADDOCK RD,ALEXANDRIA,22312,https://weyanokees.fcps.edu/,7038135400,2,2021_22,2021/11/06 05:02:34.558+00,FairfaxCounty,2021/11/06 05:02:34.558+00,FairfaxCounty
-77.1761793851913,38.8291678206038,4076,COLUMBIA,ES,Elementary School,K-6,6720 ALPINE DR,ANNANDALE,22003,https://columbiaes.fcps.edu/,7039162500,2,2021_22,2021/11/06 05:02:34.558+00,FairfaxCounty,2021/11/06 05:02:34.558+00,FairfaxCounty
-77.2081972310586,38.8272352638585,4077,ANNANDALE TERRACE,ES,Elementary School,K-5,7604 HERALD ST,ANNANDALE,22003,https://annandaleterracees.fcps.edu/,7036585600,2,2021_22,2021/11/06 05:02:34.558+00,FairfaxCounty,2021/11/06 05:02:34.558+00,FairfaxCounty
-77.2155401393758,38.8222723610177,4078,BRADDOCK,ES,Elementary School,K-5,7825 HERITAGE DR,ANNANDALE,22003,https://braddockes.fcps.edu/,7039147300,2,2021_22,2021/11/06 05:02:34.558+00,FairfaxCounty,2021/11/06 05:02:34.558+00,FairfaxCounty
-77.266594220252,38.8261800931219,4079,LITTLE RUN,ES,Elementary School,K-6,4511 OLLEY LN,FAIRFAX,22032,https://littlerunes.fcps.edu/,7035033500,5,2021_22,2021/11/06 05:02:34.558+00,FairfaxCounty,2021/11/06 05:02:34.558+00,FairfaxCounty
-77.2766257767928,38.8311746260033,4080,OLDE CREEK,ES,Elementary School,K-6,9524 OLD CREEK DR,FAIRFAX,22032,https://oldecreekes.fcps.edu/,7034263100,5,2021_22,2021/11/06 05:02:34.558+00,FairfaxCounty,2021/11/06 05:02:34.558+00,FairfaxCounty
-77.3798908314032,38.8318825860783,4081,WILLOW SPRINGS,ES,Elementary School,K-6,5400 WILLOW SPRINGS SCHOOL RD,FAIRFAX,22030,https://willowspringses.fcps.edu/,7036796000,5,2021_22,2021/11/06 05:02:34.558+00,FairfaxCounty,2021/11/06 05:02:34.558+00,FairfaxCounty
-77.4176313791446,38.8204380517095,4082,UNION MILL,ES,Elementary School,K-6,13611 SPRINGSTONE DR,CLIFTON,20124,https://unionmilles.fcps.edu/,7033228500,4,2021_22,2021/11/06 05:02:34.558+00,FairfaxCounty,2021/11/06 05:02:34.558+00,FairfaxCounty
-77.4406491760593,38.8196625886711,4083,CENTREVILLE,ES,Elementary School,K-6,14330 GREEN TRAILS BLVD,CENTREVILLE,20121,https://centrevillees.fcps.edu/,7035023500,4,2021_22,2021/11/06 05:02:34.558+00,FairfaxCounty,2021/11/06 05:02:34.558+00,FairfaxCounty
-77.4455671349294,38.8257935722041,4084,CENTRE RIDGE,ES,Elementary School,K-6,14400 NEW BRADDOCK RD,CENTREVILLE,20121,https://centreridgees.fcps.edu/,7032272600,4,2021_22,2021/11/06 05:02:34.558+00,FairfaxCounty,2021/11/06 05:02:34.558+00,FairfaxCounty
-77.4755281043991,38.8286628480282,4085,BULL RUN,ES,Elementary School,K-6,15301 LEE HWY,CENTREVILLE,20121,https://bullrunes.fcps.edu/,7032271400,5,2021_22,2021/11/06 05:02:34.558+00,FairfaxCounty,2021/11/06 05:02:34.558+00,FairfaxCounty
-77.2860743768372,38.8698952123818,4086,MOSAIC,ES,Elementary School,K-6,9819 FIVE OAKS RD,FAIRFAX,22031,https://mosaices.fcps.edu/,7039371600,1,2021_22,2021/11/06 05:02:34.558+00,FairfaxCounty,2021/11/06 05:02:34.558+00,FairfaxCounty
-77.3256731074341,38.8640647091704,4087,PROVIDENCE,ES,Elementary School,K-6,3616 JERMANTOWN RD,FAIRFAX,22030,https://providencees.fcps.edu/,7034604400,5,2021_22,2021/11/06 05:02:34.558+00,FairfaxCounty,2021/11/06 05:02:34.558+00,FairfaxCounty
-77.3943925780714,38.8714213558314,4088,GREENBRIAR EAST,ES,Elementary School,K-6,13006 POINT PLEASANT DR,FAIRFAX,22033,https://greenbriareastes.fcps.edu/,7036336400,5,2021_22,2021/11/06 05:02:34.558+00,FairfaxCounty,2021/11/06 05:02:34.558+00,FairfaxCounty
-77.4148263406067,38.8627653300567,4089,POPLAR TREE,ES,Elementary School,K-6,13440 MELVILLE LN,CHANTILLY,20151,https://poplartreees.fcps.edu/,7036337400,5,2021_22,2021/11/06 05:02:34.558+00,FairfaxCounty,2021/11/06 05:02:34.558+00,FairfaxCounty
-77.458516850243,38.865718117931,4090,CUB RUN,ES,Elementary School,K-6,5301 SULLY STATION DR,CENTREVILLE,20120,https://cubrunes.fcps.edu/,7036337500,5,2021_22,2021/11/06 05:02:34.558+00,FairfaxCounty,2021/11/06 05:02:34.558+00,FairfaxCounty
-77.1810854635538,38.8529465798977,4091,BEECH TREE,ES,Elementary School,K-5,3401 BEECHTREE LN,FALLS CHURCH,22042,https://beechtreees.fcps.edu/,7035312600,2,2021_22,2021/11/06 05:02:34.558+00,FairfaxCounty,2021/11/06 05:02:34.558+00,FairfaxCounty
-77.1687061425379,38.8558013991018,4092,SLEEPY HOLLOW,ES,Elementary School,K-5,3333 SLEEPY HOLLOW RD,FALLS CHURCH,22044,https://sleepyhollowes.fcps.edu/,7032377000,2,2021_22,2021/11/06 05:02:34.558+00,FairfaxCounty,2021/11/06 05:02:34.558+00,FairfaxCounty
-77.2500817343457,38.8922970209941,4093,CUNNINGHAM PARK,ES,Elementary School,K-6,1001 PARK ST SE ,VIENNA,22180,https://cunninghamparkes.fcps.edu/,7032555600,1,2021_22,2021/11/06 05:02:34.558+00,FairfaxCounty,2021/11/06 05:02:34.558+00,FairfaxCounty
-77.2632673206305,38.9011463802941,4094,VIENNA,ES,Elementary School,K-6,128 CENTER ST S,VIENNA,22180,https://viennaes.fcps.edu/,7039376000,1,2021_22,2021/11/06 05:02:34.558+00,FairfaxCounty,2021/11/06 05:02:34.558+00,FairfaxCounty
-77.2847705160474,38.8960755623051,4095,FLINT HILL,ES,Elementary School,K-6,2444 FLINT HILL RD,VIENNA,22181,https://flinthilles.fcps.edu/,7032426100,1,2021_22,2021/11/06 05:02:34.558+00,FairfaxCounty,2021/11/06 05:02:34.558+00,FairfaxCounty
-77.2666276232685,38.8822635900049,4096,MARSHALL ROAD,ES,Elementary School,K-6,730 MARSHALL RD SW,VIENNA,22180,https://marshallroades.fcps.edu/,7039371500,1,2021_22,2021/11/06 05:02:34.558+00,FairfaxCounty,2021/11/06 05:02:34.558+00,FairfaxCounty
-77.3042827951774,38.8801879942633,4097,OAKTON,ES,Elementary School,K-6,3000 CHAIN BRIDGE RD,OAKTON,22124,https://oaktones.fcps.edu/,7039376100,1,2021_22,2021/11/06 05:02:34.558+00,FairfaxCounty,2021/11/06 05:02:34.558+00,FairfaxCounty
-77.3447841865136,38.8763830528777,4098,WAPLES MILL,ES,Elementary School,K-6,11509 WAPLES MILL RD,OAKTON,22124,https://waplesmilles.fcps.edu/,7033907700,1,2021_22,2021/11/06 05:02:34.558+00,FairfaxCounty,2021/11/06 05:02:34.558+00,FairfaxCounty
-77.4056521160396,38.8763379980207,4099,GREENBRIAR WEST,ES,Elementary School,K-6,13300 POPLAR TREE RD,FAIRFAX,22033,https://greenbriarwestes.fcps.edu/,7036336700,5,2021_22,2021/11/06 05:02:34.558+00,FairfaxCounty,2021/11/06 05:02:34.558+00,FairfaxCounty
-77.4192737195324,38.8823971792513,4100,BROOKFIELD,ES,Elementary School,K-6,4200 LEES CORNER RD,CHANTILLY,20151,https://brookfieldes.fcps.edu/,7038148700,5,2021_22,2021/11/06 05:02:34.558+00,FairfaxCounty,2021/11/06 05:02:34.558+00,FairfaxCounty
-77.32354098373,38.8399871001375,4101,FAIRFAX VILLA,ES,Elementary School,K-6,10900 SANTA CLARA DR,FAIRFAX,22030,https://fairfaxvillaes.fcps.edu/,7032672800,5,2021_22,2021/11/06 05:02:34.558+00,FairfaxCounty,2021/11/06 05:02:34.558+00,FairfaxCounty
-77.4079905346286,38.8461483842305,4102,POWELL,ES,Elementary School,K-6,13340 LELAND RD,CENTREVILLE,20120,https://powelles.fcps.edu/,5715226000,4,2021_22,2021/11/06 05:02:34.558+00,FairfaxCounty,2021/11/06 05:02:34.558+00,FairfaxCounty
-77.3097518147785,38.8040757644683,4103,BONNIE BRAE,ES,Elementary School,K-6,5420 SIDEBURN RD,FAIRFAX,22032,https://bonniebraees.fcps.edu/,7033213900,4,2021_22,2021/11/06 05:02:34.558+00,FairfaxCounty,2021/11/06 05:02:34.558+00,FairfaxCounty
-77.3245645278673,38.7976861500472,4104,FAIRVIEW,ES,Elementary School,K-6,5815 OX RD,FAIRFAX STATION,22039,https://fairviewes.fcps.edu/,7035033700,4,2021_22,2021/11/06 05:02:34.558+00,FairfaxCounty,2021/11/06 05:02:34.558+00,FairfaxCounty
-77.0795897487312,38.7850946437202,4105,MOUNT EAGLE,ES,Elementary School,K-6,6116 N KINGS HWY,ALEXANDRIA,22303,https://mounteaglees.fcps.edu/,7037212100,3,2021_22,2021/11/06 05:02:34.558+00,FairfaxCounty,2021/11/06 05:02:34.558+00,FairfaxCounty
-77.1173526164727,38.781910709642,4106,ROSE HILL,ES,Elementary School,K-6,6301 ROSE HILL DR,ALEXANDRIA,22310,https://rosehilles.fcps.edu/,7033134200,3,2021_22,2021/11/06 05:02:34.558+00,FairfaxCounty,2021/11/06 05:02:34.558+00,FairfaxCounty
-77.2980171190847,38.7854752846626,4107,TERRA CENTRE,ES,Elementary School,K-6,6000 BURKE CENTRE PKWY,BURKE,22015,https://terracentrees.fcps.edu/,7032491400,4,2021_22,2021/11/06 05:02:34.558+00,FairfaxCounty,2021/11/06 05:02:34.558+00,FairfaxCounty
-77.0610355045928,38.7719600280004,4108,BELLE VIEW,ES,Elementary School,K-6,6701 FORT HUNT RD,ALEXANDRIA,22307,https://belleviewes.fcps.edu/,7036608300,3,2021_22,2021/11/06 05:02:34.558+00,FairfaxCounty,2021/11/06 05:02:34.558+00,FairfaxCounty
-77.0740440630726,38.7665852374086,4109,BUCKNELL,ES,Elementary School,K-6,6925 UNIVERSITY DR,ALEXANDRIA,22307,https://bucknelles.fcps.edu/,7036602900,3,2021_22,2021/11/06 05:02:34.558+00,FairfaxCounty,2021/11/06 05:02:34.558+00,FairfaxCounty
-77.0949745459911,38.7688053564729,4110,GROVETON,ES,Elementary School,K-6,6900 HARRISON LN,ALEXANDRIA,22306,https://grovetones.fcps.edu/,7037188000,3,2021_22,2021/11/06 05:02:34.558+00,FairfaxCounty,2021/11/06 05:02:34.558+00,FairfaxCounty
-77.1695841516509,38.776250456235,4111,FORESTDALE,ES,Elementary School,K-6,6530 ELDER AVE,SPRINGFIELD,22150,https://forestdalees.fcps.edu/,7033134300,3,2021_22,2021/11/06 05:02:34.558+00,FairfaxCounty,2021/11/06 05:02:34.558+00,FairfaxCounty
-77.1899309303035,38.777518803775,4112,GARFIELD,ES,Elementary School,K-6,7101 OLD KEENE MILL RD,SPRINGFIELD,22150,https://garfieldes.fcps.edu/,7039232900,3,2021_22,2021/11/06 05:02:34.558+00,FairfaxCounty,2021/11/06 05:02:34.558+00,FairfaxCounty
-77.2192544078076,38.7692373308107,4113,WEST SPRINGFIELD,ES,Elementary School,K-6,6802 DELAND DR,SPRINGFIELD,22152,https://westspringfieldes.fcps.edu/,7039133800,4,2021_22,2021/11/06 05:02:34.558+00,FairfaxCounty,2021/11/06 05:02:34.558+00,FairfaxCounty
-77.2314250085432,38.7689225000695,4114,ROLLING VALLEY,ES,Elementary School,K-6,6703 BARNACK DR,SPRINGFIELD,22152,https://rollingvalleyes.fcps.edu/,7039232700,4,2021_22,2021/11/06 05:02:34.558+00,FairfaxCounty,2021/11/06 05:02:34.558+00,FairfaxCounty
-77.2554551633396,38.7658720302068,4115,ORANGE HUNT,ES,Elementary School,K-6,6820 SYDENSTRICKER RD,SPRINGFIELD,22152,https://orangehuntes.fcps.edu/,7039136800,4,2021_22,2021/11/06 05:02:34.558+00,FairfaxCounty,2021/11/06 05:02:34.558+00,FairfaxCounty
-77.2844195754903,38.7680679771144,4116,CHERRY RUN,ES,Elementary School,K-6,9732 IRONMASTER DR,BURKE,22015,https://cherryrunes.fcps.edu/,7039232800,4,2021_22,2021/11/06 05:02:34.558+00,FairfaxCounty,2021/11/06 05:02:34.558+00,FairfaxCounty
-77.0716923842511,38.7504813943802,4117,HOLLIN MEADOWS,ES,Elementary School,K-6,2310 NORDOK PL,ALEXANDRIA,22306,https://hollinmeadowses.fcps.edu/,7037188300,3,2021_22,2021/11/06 05:02:34.558+00,FairfaxCounty,2021/11/06 05:02:34.558+00,FairfaxCounty
-77.0896351932218,38.7589869969539,4118,HYBLA VALLEY,ES,Elementary School,K-6,3415 LOCKHEED BLVD,ALEXANDRIA,22306,https://hyblavalleyes.fcps.edu/,7037187000,3,2021_22,2021/11/06 05:02:34.558+00,FairfaxCounty,2021/11/06 05:02:34.558+00,FairfaxCounty
-77.1573343214641,38.7610805923798,4119,LANE,ES,Elementary School,K-6,7137 BEULAH ST,ALEXANDRIA,22315,https://lanees.fcps.edu/,7039247700,3,2021_22,2021/11/06 05:02:34.558+00,FairfaxCounty,2021/11/06 05:02:34.558+00,FairfaxCounty
-77.243665928003,38.7620940366246,4120,HUNT VALLEY,ES,Elementary School,K-6,7107 SYDENSTRICKER RD,SPRINGFIELD,22152,https://huntvalleyes.fcps.edu/,7039138800,4,2021_22,2021/11/06 05:02:34.558+00,FairfaxCounty,2021/11/06 05:02:34.558+00,FairfaxCounty
-77.2724819492676,38.7551638836514,4121,SANGSTER,ES,Elementary School,K-6,7420 RESERVATION DR,SPRINGFIELD,22153,https://sangsteres.fcps.edu/,7036448200,4,2021_22,2021/11/06 05:02:34.558+00,FairfaxCounty,2021/11/06 05:02:34.558+00,FairfaxCounty
-77.2958537922949,38.8140378605603,4122,LAUREL RIDGE,ES,Elementary School,K-6,10110 COMMONWEALTH BLVD,FAIRFAX,22032,https://laurelridgees.fcps.edu/,7034263700,4,2021_22,2021/11/06 05:02:34.558+00,FairfaxCounty,2021/11/06 05:02:34.558+00,FairfaxCounty
-77.3098417196668,38.8188424476963,4123,OAK VIEW,ES,Elementary School,K-6,5004 SIDEBURN RD,FAIRFAX,22032,https://oakviewes.fcps.edu/,7037647100,5,2021_22,2021/11/06 05:02:34.558+00,FairfaxCounty,2021/11/06 05:02:34.558+00,FairfaxCounty
-77.0913673282394,38.8001846129136,4124,CAMERON,ES,Elementary School,K-6,3434 CAMPBELL DR,ALEXANDRIA,22303,https://camerones.fcps.edu/,7033292100,3,2021_22,2021/11/06 05:02:34.558+00,FairfaxCounty,2021/11/06 05:02:34.558+00,FairfaxCounty
-77.1111908404522,38.7948868521658,4125,CLERMONT,ES,Elementary School,K-6,5720 CLERMONT DR,ALEXANDRIA,22310,https://clermontes.fcps.edu/,7039212400,3,2021_22,2021/11/06 05:02:34.558+00,FairfaxCounty,2021/11/06 05:02:34.558+00,FairfaxCounty
-77.185839774956,38.7921089796557,4126,LYNBROOK,ES,Elementary School,K-6,5801 BACKLICK RD,SPRINGFIELD,22150,https://lynbrookes.fcps.edu/,7038662940,3,2021_22,2021/11/06 05:02:34.558+00,FairfaxCounty,2021/11/06 05:02:34.558+00,FairfaxCounty
-77.2071622165314,38.801567213758,4127,NORTH SPRINGFIELD,ES,Elementary School,K-5,7602 HEMING CT,SPRINGFIELD,22151,https://northspringfieldes.fcps.edu/,7036585500,2,2021_22,2021/11/06 05:02:34.558+00,FairfaxCounty,2021/11/06 05:02:34.558+00,FairfaxCounty
-77.2250898916782,38.8482799204194,4128,CAMELOT,ES,Elementary School,K-6,8100 GUINEVERE DR,ANNANDALE,22003,https://camelotes.fcps.edu/,7036457000,2,2021_22,2021/11/06 05:02:34.558+00,FairfaxCounty,2021/11/06 05:02:34.558+00,FairfaxCounty
-77.2137583202427,38.8519357614738,4129,WOODBURN,ES,Elementary School,K-6,3401 HEMLOCK DR,FALLS CHURCH,22042,https://woodburnes.fcps.edu/,7036418200,2,2021_22,2021/11/06 05:02:34.558+00,FairfaxCounty,2021/11/06 05:02:34.558+00,FairfaxCounty
-77.2958347403414,38.8521327277344,4130,DANIELS RUN,ES,Elementary School,K-6,3705 OLD LEE HWY,FAIRFAX,22030,https://danielsrunes.fcps.edu/,7032798400,5,2021_22,2021/11/06 05:02:34.558+00,FairfaxCounty,2021/11/06 05:02:34.558+00,FairfaxCounty
-77.3628729153986,38.8514018649021,4131,EAGLE VIEW,ES,Elementary School,K-6,4500 DIXIE HILL RD,FAIRFAX,22030,https://eagleviewes.fcps.edu/,7033223100,5,2021_22,2021/11/06 05:02:34.558+00,FairfaxCounty,2021/11/06 05:02:34.558+00,FairfaxCounty
-77.4710933906234,38.8558023306016,4132,DEER PARK,ES,Elementary School,K-6,15109 CARLBERN DR,CENTREVILLE,20120,https://deerparkes.fcps.edu/,7038025000,5,2021_22,2021/11/06 05:02:34.558+00,FairfaxCounty,2021/11/06 05:02:34.558+00,FairfaxCounty
-77.4857308918231,38.8520985147743,4133,VIRGINIA RUN,ES,Elementary School,K-6,15450 MARTINS HUNDRED DR,CENTREVILLE,20120,https://virginiarunes.fcps.edu/,7039888900,5,2021_22,2021/11/06 05:02:34.558+00,FairfaxCounty,2021/11/06 05:02:34.558+00,FairfaxCounty
-77.1531240613751,38.8339254004581,4134,PARKLAWN,ES,Elementary School,K-5,4116 BRADDOCK RD,ALEXANDRIA,22312,https://parklawnes.fcps.edu/,7039146900,2,2021_22,2021/11/06 05:02:34.558+00,FairfaxCounty,2021/11/06 05:02:34.558+00,FairfaxCounty
-77.1688843046583,38.8397556619503,4135,BELVEDERE,ES,Elementary School,K-5,6540 COLUMBIA PIKE,FALLS CHURCH,22041,https://belvederees.fcps.edu/,7039166800,2,2021_22,2021/11/06 05:02:34.558+00,FairfaxCounty,2021/11/06 05:02:34.558+00,FairfaxCounty
-77.246651984474,38.8360558143389,4136,WAKEFIELD FOREST,ES,Elementary School,K-6,4011 IVA LN,FAIRFAX,22032,https://wakefieldforestes.fcps.edu/,7035032300,5,2021_22,2021/11/06 05:02:34.558+00,FairfaxCounty,2021/11/06 05:02:34.558+00,FairfaxCounty
-77.1640832439061,38.783975224381,4137,SPRINGFIELD ESTATES,ES,Elementary School,K-6,6200 CHARLES C GOFF DR,SPRINGFIELD,22150,https://springfieldestateses.fcps.edu/,7039212300,3,2021_22,2021/11/06 05:02:34.558+00,FairfaxCounty,2021/11/06 05:02:34.558+00,FairfaxCounty
-77.1949220290874,38.7873942565306,4138,CRESTWOOD,ES,Elementary School,K-6,6010 HANOVER AVE,SPRINGFIELD,22150,https://crestwoodes.fcps.edu/,7039235400,3,2021_22,2021/11/06 05:02:34.558+00,FairfaxCounty,2021/11/06 05:02:34.558+00,FairfaxCounty
-77.2215078385794,38.7811960439509,4139,KEENE MILL,ES,Elementary School,K-6,6310 BARDU AVE,SPRINGFIELD,22152,https://keenemilles.fcps.edu/,7036444700,4,2021_22,2021/11/06 05:02:34.558+00,FairfaxCounty,2021/11/06 05:02:34.558+00,FairfaxCounty
-77.1453726021775,38.8521005146992,4140,BAILEY'S,ES,Elementary School,K-2,6111 KNOLLWOOD DR,FALLS CHURCH,22041,https://baileyses.fcps.edu/,7035756800,2,2021_22,2021/11/06 05:02:34.558+00,FairfaxCounty,2021/11/06 05:02:34.558+00,FairfaxCounty
-77.1285384779642,38.8557976106783,4141,GLEN FOREST,ES,Elementary School,K-5,5829 GLEN FOREST DR,FALLS CHURCH,22041,https://glenforestes.fcps.edu/,7035788000,2,2021_22,2021/11/06 05:02:34.558+00,FairfaxCounty,2021/11/06 05:02:34.558+00,FairfaxCounty
-77.4564065517199,38.839836915392,4142,LONDON TOWNE,ES,Elementary School,K-6,6100 STONE RD,CENTREVILLE,20120,https://londontownees.fcps.edu/,7032275400,5,2021_22,2021/11/06 05:02:34.558+00,FairfaxCounty,2021/11/06 05:02:34.558+00,FairfaxCounty
-77.2497989127695,38.8207208730666,4143,CANTERBURY WOODS,ES,Elementary School,K-6,4910 WILLET DR,ANNANDALE,22003,https://canterburywoodses.fcps.edu/,7037645600,5,2021_22,2021/11/06 05:02:34.558+00,FairfaxCounty,2021/11/06 05:02:34.558+00,FairfaxCounty
-77.1963934409234,38.8425538205774,4144,MASON CREST,ES,Elementary School,K-5,3705 CREST DR,ANNANDALE,22003,https://masoncrestes.fcps.edu/,5712262600,2,2021_22,2021/11/06 05:02:34.558+00,FairfaxCounty,2021/11/06 05:02:34.558+00,FairfaxCounty
-77.0559968093543,38.7247797216038,4145,WAYNEWOOD,ES,Elementary School,K-6,1205 WAYNEWOOD BLVD,ALEXANDRIA,22308,https://waynewoodes.fcps.edu/,7037047100,3,2021_22,2021/11/06 05:02:34.558+00,FairfaxCounty,2021/11/06 05:02:34.558+00,FairfaxCounty
-77.0687708263377,38.7281192368692,4146,STRATFORD LANDING,ES,Elementary School,K-6,8484 RIVERSIDE RD,ALEXANDRIA,22308,https://stratfordlandinges.fcps.edu/,7036193600,3,2021_22,2021/11/06 05:02:34.558+00,FairfaxCounty,2021/11/06 05:02:34.558+00,FairfaxCounty
-77.1178669899195,38.7265305614674,4147,WOODLAWN,ES,Elementary School,K-6,8505 HIGHLAND LN,ALEXANDRIA,22309,https://woodlawnes.fcps.edu/,7036194800,3,2021_22,2021/11/06 05:02:34.558+00,FairfaxCounty,2021/11/06 05:02:34.558+00,FairfaxCounty
-77.2047619270355,38.919182543307,4148,WESTGATE,ES,Elementary School,K-6,7500 MAGARITY RD,FALLS CHURCH,22043,https://westgatees.fcps.edu/,7036105700,2,2021_22,2021/11/06 05:02:34.558+00,FairfaxCounty,2021/11/06 05:02:34.558+00,FairfaxCounty
-77.1681702326329,38.7455476875307,4149,ISLAND CREEK,ES,Elementary School,K-6,7855 MORNING VIEW LN,ALEXANDRIA,22315,https://islandcreekes.fcps.edu/,5716426300,3,2021_22,2021/11/06 05:02:34.558+00,FairfaxCounty,2021/11/06 05:02:34.558+00,FairfaxCounty
-77.2137328819796,38.7357628155791,4150,SARATOGA,ES,Elementary School,K-6,8111 NORTHUMBERLAND RD,SPRINGFIELD,22153,https://saratogaes.fcps.edu/,7034402600,3,2021_22,2021/11/06 05:02:34.558+00,FairfaxCounty,2021/11/06 05:02:34.558+00,FairfaxCounty
-77.2690688380328,38.7289592814202,4151,SILVERBROOK,ES,Elementary School,K-6,9350 CROSSPOINTE DR,FAIRFAX STATION,22039,https://silverbrookes.fcps.edu/,7036905100,4,2021_22,2021/11/06 05:02:34.558+00,FairfaxCounty,2021/11/06 05:02:34.558+00,FairfaxCounty
-77.0664435303604,38.7189731746819,4152,FORT HUNT,ES,Elementary School,K-6,8832 LINTON LN,ALEXANDRIA,22308,https://forthuntes.fcps.edu/,7036192600,3,2021_22,2021/11/06 05:02:34.558+00,FairfaxCounty,2021/11/06 05:02:34.558+00,FairfaxCounty
-77.0964455641357,38.720289817556,4153,WOODLEY HILLS,ES,Elementary School,K-6,8718 OLD MT VERNON RD,ALEXANDRIA,22309,https://woodleyhillses.fcps.edu/,7037992000,3,2021_22,2021/11/06 05:02:34.558+00,FairfaxCounty,2021/11/06 05:02:34.558+00,FairfaxCounty
-77.1045266736449,38.7099830081405,4154,WASHINGTON MILL,ES,Elementary School,K-6,9100 CHERRYTREE DR,ALEXANDRIA,22309,https://washingtonmilles.fcps.edu/,7036192500,3,2021_22,2021/11/06 05:02:34.558+00,FairfaxCounty,2021/11/06 05:02:34.558+00,FairfaxCounty
-77.1420881331366,38.7222009766177,4155,FORT BELVOIR UPPER,ES,Elementary School,3-6,5970 MEERES RD,FORT BELVOIR,22060,https://fortbelvoires.fcps.edu/,7037812700,3,2021_22,2021/11/06 05:02:34.558+00,FairfaxCounty,2021/11/06 05:02:34.558+00,FairfaxCounty
-77.2332160164893,38.7174874245292,4156,LAUREL HILL,ES,Elementary School,K-6,8390 LAUREL CREST DR,LORTON,22079,https://laurelhilles.fcps.edu/,7035515300,4,2021_22,2021/11/06 05:02:34.558+00,FairfaxCounty,2021/11/06 05:02:34.558+00,FairfaxCounty
-77.2598572349436,38.7179280740007,4157,HALLEY,ES,Elementary School,K-6,8850 CROSS CHASE CIR,FAIRFAX STATION,22039,https://halleyes.fcps.edu/,7035515700,4,2021_22,2021/11/06 05:02:34.558+00,FairfaxCounty,2021/11/06 05:02:34.558+00,FairfaxCounty
-77.1893588232925,38.9464447860178,4158,CHURCHILL ROAD,ES,Elementary School,K-6,7100 CHURCHILL RD,MCLEAN,22101,https://churchillroades.fcps.edu/,7032888400,1,2021_22,2021/11/06 05:02:34.558+00,FairfaxCounty,2021/11/06 05:02:34.558+00,FairfaxCounty
-77.3622328613742,38.9149495976448,4159,CROSSFIELD,ES,Elementary School,K-6,2791 FOX MILL RD,HERNDON,20171,https://crossfieldes.fcps.edu/,7032951100,1,2021_22,2021/11/06 05:02:34.558+00,FairfaxCounty,2021/11/06 05:02:34.558+00,FairfaxCounty
-77.2703349768292,38.7831240416474,4160,WHITE OAKS,ES,Elementary School,K-6,6130 SHIPLETT BLVD,BURKE,22015,https://whiteoakses.fcps.edu/,7039231400,4,2021_22,2021/11/06 05:02:34.558+00,FairfaxCounty,2021/11/06 05:02:34.558+00,FairfaxCounty
-77.223264610042,38.8031628599135,4161,RAVENSWORTH,ES,Elementary School,K-6,5411 NUTTING DR,SPRINGFIELD,22151,https://ravensworthes.fcps.edu/,7034263600,4,2021_22,2021/11/06 05:02:34.558+00,FairfaxCounty,2021/11/06 05:02:34.558+00,FairfaxCounty
-77.2403320674439,38.7920910485638,4162,CARDINAL FOREST,ES,Elementary School,K-6,8600 FORRESTER BLVD,SPRINGFIELD,22152,https://cardinalforestes.fcps.edu/,7039235200,4,2021_22,2021/11/06 05:02:34.558+00,FairfaxCounty,2021/11/06 05:02:34.558+00,FairfaxCounty
-77.2416624536976,38.8048497044806,4163,KINGS PARK,ES,Elementary School,K-3,5400 HARROW WAY,SPRINGFIELD,22151,https://kingsparkes.fcps.edu/,7034267000,4,2021_22,2021/11/06 05:02:34.558+00,FairfaxCounty,2021/11/06 05:02:34.558+00,FairfaxCounty
-77.2346185980149,38.8038602056737,4164,KINGS GLEN,ES,Elementary School,4-6,5401 DANBURY FOREST DR,SPRINGFIELD,22151,https://kingsglenes.fcps.edu/,7032394000,4,2021_22,2021/11/06 05:02:34.558+00,FairfaxCounty,2021/11/06 05:02:34.558+00,FairfaxCounty
-77.218545541279,38.7065678997496,4165,LORTON STATION,ES,Elementary School,K-6,9298 LEWIS CHAPEL RD,LORTON,22079,https://lortonstationes.fcps.edu/,5716426000,3,2021_22,2021/11/06 05:02:34.558+00,FairfaxCounty,2021/11/06 05:02:34.558+00,FairfaxCounty
-77.2096764081722,38.684899265326,4166,GUNSTON,ES,Elementary School,K-6,10100 GUNSTON RD,LORTON,22079,https://gunstones.fcps.edu/,7035413600,3,2021_22,2021/11/06 05:02:34.558+00,FairfaxCounty,2021/11/06 05:02:34.558+00,FairfaxCounty
-77.0948174027224,38.7297748920444,4167,RIVERSIDE,ES,Elementary School,K-6,8410 OLD MT VERNON RD,ALEXANDRIA,22309,https://riversidees.fcps.edu/,7037996000,3,2021_22,2021/11/06 05:02:34.558+00,FairfaxCounty,2021/11/06 05:02:34.558+00,FairfaxCounty
-77.1573410769765,38.8021496914922,4168,BREN MAR PARK,ES,Elementary School,K-5,6344 BERYL RD,ALEXANDRIA,22312,https://brenmarparkes.fcps.edu/,7039147200,3,2021_22,2021/11/06 05:02:34.558+00,FairfaxCounty,2021/11/06 05:02:34.558+00,FairfaxCounty
-77.3465226199735,38.9654523414113,4169,LAKE ANNE,ES,Elementary School,K-6,11510 NORTH SHORE DR,RESTON,20190,https://lakeannees.fcps.edu/,7033263500,1,2021_22,2021/11/06 05:02:34.558+00,FairfaxCounty,2021/11/06 05:02:34.558+00,FairfaxCounty
-77.0999808605529,38.7423673339745,4170,MOUNT VERNON WOODS,ES,Elementary School,K-6,4015 FIELDING ST,ALEXANDRIA,22309,https://mountvernonwoodses.fcps.edu/,7036192800,3,2021_22,2021/11/06 05:02:34.558+00,FairfaxCounty,2021/11/06 05:02:34.558+00,FairfaxCounty
-77.1406873762978,38.7491525263581,4171,HAYFIELD,ES,Elementary School,K-6,7633 TELEGRAPH RD,ALEXANDRIA,22315,https://hayfieldes.fcps.edu/,7039247400,3,2021_22,2021/11/06 05:02:34.558+00,FairfaxCounty,2021/11/06 05:02:34.558+00,FairfaxCounty
-77.2403581846426,38.7391823236058,4172,NEWINGTON FOREST,ES,Elementary School,K-6,8001 NEWINGTON FOREST AVE,SPRINGFIELD,22153,https://newingtonforestes.fcps.edu/,7039232600,4,2021_22,2021/11/06 05:02:34.558+00,FairfaxCounty,2021/11/06 05:02:34.558+00,FairfaxCounty
-77.1238762571484,38.7903055508656,4173,BUSH HILL,ES,Elementary School,K-6,5927 WESTCHESTER ST,ALEXANDRIA,22310,https://bushhilles.fcps.edu/,7039245600,3,2021_22,2021/11/06 05:02:34.558+00,FairfaxCounty,2021/11/06 05:02:34.558+00,FairfaxCounty
-77.1451404862992,38.7811176701791,4174,FRANCONIA,ES,Elementary School,K-6,6301 BEULAH ST,ALEXANDRIA,22310,https://franconiaes.fcps.edu/,7038222200,3,2021_22,2021/11/06 05:02:34.558+00,FairfaxCounty,2021/11/06 05:02:34.558+00,FairfaxCounty
-77.1736262039801,38.9038741172798,4175,HAYCOCK,ES,Elementary School,K-6,6616 HAYCOCK RD,FALLS CHURCH,22043,https://haycockes.fcps.edu/,7035314000,2,2021_22,2021/11/06 05:02:34.558+00,FairfaxCounty,2021/11/06 05:02:34.558+00,FairfaxCounty
-77.2597273269748,38.8477087058811,4176,MANTUA,ES,Elementary School,K-6,9107 HORNER CT,FAIRFAX,22031,https://mantuaes.fcps.edu/,7036456300,5,2021_22,2021/11/06 05:02:34.558+00,FairfaxCounty,2021/11/06 05:02:34.558+00,FairfaxCounty
-77.1537412781019,38.8681358084355,4177,BAILEY'S UPPER,ES,Elementary School,3-5,6245 LEESBURG PIKE,FALLS CHURCH,22044,https://baileyses.fcps.edu/,7035032700,2,2021_22,2021/11/06 05:02:34.558+00,FairfaxCounty,2021/11/06 05:02:34.558+00,FairfaxCounty
-77.1437498143121,38.7214188632605,4178,FORT BELVOIR PRIMARY,ES,Elementary School,K-2,5980 MEERES RD,FORT BELVOIR,22060,https://fortbelvoires.fcps.edu/,7037812700,3,2021_22,2021/11/06 05:02:34.558+00,FairfaxCounty,2021/11/06 05:02:34.558+00,FairfaxCounty
-77.374494870427,38.985718966782,4179,HERNDON,HS,High School,9-12,700 BENNETT ST,BENNETT ST,20170,https://herndonhs.fcps.edu/,7033263100,1,2021_22,2021/11/06 05:02:34.558+00,FairfaxCounty,2021/11/06 05:02:34.558+00,FairfaxCounty
-77.1666081547493,38.9500538359469,4180,LANGLEY,HS,High School,9-12,6520 GEORGETOWN PIKE,MCLEAN,22101,https://langleyhs.fcps.edu/,7032872700,1,2021_22,2021/11/06 05:02:34.558+00,FairfaxCounty,2021/11/06 05:02:34.558+00,FairfaxCounty
-77.3393396732138,38.9324610175248,4181,SOUTH LAKES,HS,High School,9-12,11400 SOUTH LAKES DR,RESTON,20191,https://southlakeshs.fcps.edu/,7037154500,1,2021_22,2021/11/06 05:02:34.558+00,FairfaxCounty,2021/11/06 05:02:34.558+00,FairfaxCounty
-77.2793566219839,38.8958672958213,4182,MADISON,HS,High School,9-12,2500 JAMES MADISON DR,VIENNA,22181,https://madisonhs.fcps.edu/,7033192300,1,2021_22,2021/11/06 05:02:34.558+00,FairfaxCounty,2021/11/06 05:02:34.558+00,FairfaxCounty
-77.2827078847123,38.8772503223037,4183,OAKTON,HS,High School,9-12,2900 SUTTON RD,VIENNA,22181,https://oaktonhs.fcps.edu/,7039376100,1,2021_22,2021/11/06 05:02:34.558+00,FairfaxCounty,2021/11/06 05:02:34.558+00,FairfaxCounty
-77.1852096570597,38.9232249733862,4184,MCLEAN,HS,High School,9-12,1663 DAVIDSON RD,MCLEAN,22101,https://mcleanhs.fcps.edu/,7037145700,2,2021_22,2021/11/06 05:02:34.558+00,FairfaxCounty,2021/11/06 05:02:34.558+00,FairfaxCounty
-77.2126907685968,38.9060535578682,4185,MARSHALL,HS,High School,9-12,7731 LEESBURG PIKE,FALLS CHURCH,22043,https://marshallhs.fcps.edu/,7037145400,2,2021_22,2021/11/06 05:02:34.558+00,FairfaxCounty,2021/11/06 05:02:34.558+00,FairfaxCounty
-77.2074285758601,38.8615189713138,4186,FALLS CHURCH,HS,High School,9-12,7521 JAGUAR TRL,FALLS CHURCH,22042,https://fallschurchhs.fcps.edu/,7032074000,2,2021_22,2021/11/06 05:02:34.558+00,FairfaxCounty,2021/11/06 05:02:34.558+00,FairfaxCounty
-77.1497497145092,38.8568790136441,4187,JUSTICE,HS,High School,9-12,3301 PEACE VALLEY LN,FALLS CHURCH,22044,https://justicehs.fcps.edu/,7038243900,2,2021_22,2021/11/06 05:02:34.558+00,FairfaxCounty,2021/11/06 05:02:34.558+00,FairfaxCounty
-77.2081613132819,38.8220196142111,4188,ANNANDALE,HS,High School,9-12,4700 MEDFORD DR,ANNANDALE,22003,https://annandalehs.fcps.edu/,7036424100,2,2021_22,2021/11/06 05:02:34.558+00,FairfaxCounty,2021/11/06 05:02:34.558+00,FairfaxCounty
-77.1690187903971,38.8185528288774,4189,THOMAS JEFFERSON,HS,High School,9-12,6560 BRADDOCK RD,ALEXANDRIA,22312,https://tjhsst.fcps.edu/,7037508300,2,2021_22,2021/11/06 05:02:34.558+00,FairfaxCounty,2021/11/06 05:02:34.558+00,FairfaxCounty
-77.1343139112001,38.7821365527199,4190,EDISON,HS,High School,9-12,5801 FRANCONIA RD,ALEXANDRIA,22310,https://edisonhs.fcps.edu/,7039248000,3,2021_22,2021/11/06 05:02:34.558+00,FairfaxCounty,2021/11/06 05:02:34.558+00,FairfaxCounty
-77.1698874530334,38.7803772045515,4191,LEWIS,HS,High School,9-12,6540 FRANCONIA RD,SPRINGFIELD,22150,https://lewishs.fcps.edu/,7039248300,3,2021_22,2021/11/06 05:02:34.558+00,FairfaxCounty,2021/11/06 05:02:34.558+00,FairfaxCounty
-77.0722821165054,38.7743048384616,4192,WEST POTOMAC,HS,High School,9-12,6500 QUANDER RD,ALEXANDRIA,22307,https://westpotomachs.fcps.edu/,7037182500,3,2021_22,2021/11/06 05:02:34.558+00,FairfaxCounty,2021/11/06 05:02:34.558+00,FairfaxCounty
-77.1439609285904,38.7508143248784,4193,HAYFIELD,HS,High School,9-12,7630 TELEGRAPH RD,ALEXANDRIA,22315,https://hayfieldss.fcps.edu/,7039247400,3,2021_22,2021/11/06 05:02:34.558+00,FairfaxCounty,2021/11/06 05:02:34.558+00,FairfaxCounty
-77.0927725084498,38.7267643125751,4194,MOUNT VERNON,HS,High School,9-12,8515 OLD MOUNT VERNON RD,ALEXANDRIA,22309,https://mountvernonhs.fcps.edu/,7036193100,3,2021_22,2021/11/06 05:02:34.558+00,FairfaxCounty,2021/11/06 05:02:34.558+00,FairfaxCounty
-77.3018735630227,38.8159314695262,4195,ROBINSON,HS,High School,9-12,5035 SIDEBURN RD,FAIRFAX,22032,https://robinsonss.fcps.edu/,7034262100,4,2021_22,2021/11/06 05:02:34.558+00,FairfaxCounty,2021/11/06 05:02:34.558+00,FairfaxCounty
-77.2657071465678,38.8040145065419,4196,LAKE BRADDOCK,HS,High School,9-12,9200 BURKE LAKE RD,BURKE,22015,https://lakebraddockss.fcps.edu/,7034261000,4,2021_22,2021/11/06 05:02:34.558+00,FairfaxCounty,2021/11/06 05:02:34.558+00,FairfaxCounty
-77.2404338320499,38.7860732511286,4197,WEST SPRINGFIELD,HS,High School,9-12,6100 ROLLING RD,SPRINGFIELD,22152,https://westspringfieldhs.fcps.edu/,7039133800,4,2021_22,2021/11/06 05:02:34.558+00,FairfaxCounty,2021/11/06 05:02:34.558+00,FairfaxCounty
-77.4108441077896,38.8248366845421,4198,CENTREVILLE,HS,High School,9-12,6001 UNION MILL RD,CLIFTON,20124,https://centrevillehs.fcps.edu/,7035023500,4,2021_22,2021/11/06 05:02:34.558+00,FairfaxCounty,2021/11/06 05:02:34.558+00,FairfaxCounty
-77.2386371363311,38.7170640870283,4199,SOUTH COUNTY,HS,High School,9-12,8501 SILVERBROOK RD,LORTON,22079,https://southcountyhs.fcps.edu/,7034461600,4,2021_22,2021/11/06 05:02:34.558+00,FairfaxCounty,2021/11/06 05:02:34.558+00,FairfaxCounty
-77.4065847789164,38.8802069916777,4200,CHANTILLY,HS,High School,9-12,4201 STRINGFELLOW RD,CHANTILLY,20151,https://chantillyhs.fcps.edu/,7032228100,5,2021_22,2021/11/06 05:02:34.558+00,FairfaxCounty,2021/11/06 05:02:34.558+00,FairfaxCounty
-77.4651363066724,38.885568053902,4201,WESTFIELD,HS,High School,9-12,4700 STONECROFT BLVD,CHANTILLY,20151,https://westfieldhs.fcps.edu/,7034886300,5,2021_22,2021/11/06 05:02:34.558+00,FairfaxCounty,2021/11/06 05:02:34.558+00,FairfaxCounty
-77.2864259451203,38.8598661773661,4202,FAIRFAX,HS,High School,9-12,3501 LION RUN,FAIRFAX,22030,https://fairfaxhs.fcps.edu/,7032192200,5,2021_22,2021/11/06 05:02:34.558+00,FairfaxCounty,2021/11/06 05:02:34.558+00,FairfaxCounty
-77.2758955387654,38.8389144925523,4203,WOODSON,HS,High School,9-12,9525 MAIN ST,FAIRFAX,22031,https://woodsonhs.fcps.edu/,7035034600,5,2021_22,2021/11/06 05:02:34.558+00,FairfaxCounty,2021/11/06 05:02:34.558+00,FairfaxCounty
-77.3918167398866,38.9681865978826,4204,HERNDON,MS,Middle School,7-8,901 LOCUST ST,HERNDON,20170,https://herndonms.fcps.edu/,7033263100,1,2021_22,2021/11/06 05:02:34.558+00,FairfaxCounty,2021/11/06 05:02:34.558+00,FairfaxCounty
-77.1920694372733,38.9522992140445,4205,COOPER,MS,Middle School,7-8,977 BALLS HILL RD,MCLEAN,22101,https://cooperms.fcps.edu/,7034425800,1,2021_22,2021/11/06 05:02:34.558+00,FairfaxCounty,2021/11/06 05:02:34.558+00,FairfaxCounty
-77.3388422999656,38.9353286334411,4206,HUGHES,MS,Middle School,7-8,11401 RIDGE HEIGHTS RD,RESTON,20191,https://hughesms.fcps.edu/,7037153600,1,2021_22,2021/11/06 05:02:34.558+00,FairfaxCounty,2021/11/06 05:02:34.558+00,FairfaxCounty
-77.1747078908509,38.9096681021373,4207,LONGFELLOW,MS,Middle School,7-8,2000 WESTMORELAND ST,FALLS CHURCH,22043,https://longfellowms.fcps.edu/,7035332600,2,2021_22,2021/11/06 05:02:34.558+00,FairfaxCounty,2021/11/06 05:02:34.558+00,FairfaxCounty
-77.2251536271612,38.90402451049,4208,KILMER,MS,Middle School,7-8,8100 WOLFTRAP RD,VIENNA,22182,https://kilmerms.fcps.edu/,7038468800,2,2021_22,2021/11/06 05:02:34.558+00,FairfaxCounty,2021/11/06 05:02:34.558+00,FairfaxCounty
-77.2405466151609,38.888739381348,4209,THOREAU,MS,Middle School,7-8,2505 CEDAR LN,VIENNA,22180,https://thoreaums.fcps.edu/,7038468000,1,2021_22,2021/11/06 05:02:34.558+00,FairfaxCounty,2021/11/06 05:02:34.558+00,FairfaxCounty
-77.2291278384534,38.8682954481453,4210,JACKSON,MS,Middle School,7-8,3020 GALLOWS RD,FALLS CHURCH,22042,https://jacksonms.fcps.edu/,7032048100,1,2021_22,2021/11/06 05:02:34.558+00,FairfaxCounty,2021/11/06 05:02:34.558+00,FairfaxCounty
-77.1409839317864,38.837636808692,4211,GLASGOW,MS,Middle School,6-8,4101 FAIRFAX PKWY,ALEXANDRIA,22312,https://glasgowms.fcps.edu/,7038138700,2,2021_22,2021/11/06 05:02:34.558+00,FairfaxCounty,2021/11/06 05:02:34.558+00,FairfaxCounty
-77.1866628149005,38.8204946901958,4212,POE,MS,Middle School,6-8,7000 CINDY LN,ANNANDALE,22003,https://poems.fcps.edu/,7038133800,2,2021_22,2021/11/06 05:02:34.558+00,FairfaxCounty,2021/11/06 05:02:34.558+00,FairfaxCounty
-77.1633244492165,38.8152438084391,4213,HOLMES,MS,Middle School,6-8,6525 MONTROSE ST,ALEXANDRIA,22312,https://holmesms.fcps.edu/,7036585900,2,2021_22,2021/11/06 05:02:34.558+00,FairfaxCounty,2021/11/06 05:02:34.558+00,FairfaxCounty
-77.114002407304,38.7902445461002,4214,TWAIN,MS,Middle School,7-8,4700 FRANCONIA RD,ALEXANDRIA,22310,https://twainms.fcps.edu/,7033133700,3,2021_22,2021/11/06 05:02:34.558+00,FairfaxCounty,2021/11/06 05:02:34.558+00,FairfaxCounty
-77.1617578984587,38.7803824351401,4215,KEY,MS,Middle School,7-8,6402 FRANCONIA RD,SPRINGFIELD,22150,https://keyms.fcps.edu/,7033133900,3,2021_22,2021/11/06 05:02:34.558+00,FairfaxCounty,2021/11/06 05:02:34.558+00,FairfaxCounty
-77.0742697754254,38.741485832256,4216,WHITMAN,MS,Middle School,7-8,2500 PARKERS LN,ALEXANDRIA,22306,https://whitmanms.fcps.edu/,7036602400,3,2021_22,2021/11/06 05:02:34.558+00,FairfaxCounty,2021/11/06 05:02:34.558+00,FairfaxCounty
-77.1442289662514,38.7495668006064,4217,HAYFIELD,MS,Middle School,7-8,7630 TELEGRAPH RD,ALEXANDRIA,22315,https://hayfieldss.fcps.edu/,7039247400,3,2021_22,2021/11/06 05:02:34.558+00,FairfaxCounty,2021/11/06 05:02:34.558+00,FairfaxCounty
-77.0621250415789,38.7291207871341,4218,SANDBURG,MS,Middle School,7-8,8428 FORT HUNT RD,ALEXANDRIA,22308,https://sandburgms.fcps.edu/,7037996100,3,2021_22,2021/11/06 05:02:34.558+00,FairfaxCounty,2021/11/06 05:02:34.558+00,FairfaxCounty
-77.3024656393776,38.8165776139072,4219,ROBINSON,MS,Middle School,7-8,5035 SIDEBURN RD,FAIRFAX,22032,https://robinsonss.fcps.edu/,7034262100,4,2021_22,2021/11/06 05:02:34.558+00,FairfaxCounty,2021/11/06 05:02:34.558+00,FairfaxCounty
-77.2661145751853,38.8023286779048,4220,LAKE BRADDOCK,MS,Middle School,7-8,9200 BURKE LAKE RD,BURKE,22015,https://lakebraddockss.fcps.edu/,7034261000,4,2021_22,2021/11/06 05:02:34.558+00,FairfaxCounty,2021/11/06 05:02:34.558+00,FairfaxCounty
-77.4175842422431,38.8054181334271,4221,LIBERTY,MS,Middle School,7-8,6801 UNION MILL RD,CLIFTON,20124,https://libertyms.fcps.edu/,7039888100,4,2021_22,2021/11/06 05:02:34.558+00,FairfaxCounty,2021/11/06 05:02:34.558+00,FairfaxCounty
-77.2244645894209,38.7817300614831,4222,IRVING,MS,Middle School,7-8,8100 OLD KEENE MILL RD,SPRINGFIELD,22152,https://irvingms.fcps.edu/,7039124500,4,2021_22,2021/11/06 05:02:34.558+00,FairfaxCounty,2021/11/06 05:02:34.558+00,FairfaxCounty
-77.2454529221911,38.721749173206,4223,SOUTH COUNTY,MS,Middle School,7-8,8700 LAUREL CREST DR,LORTON,22079,https://southcountyms.fcps.edu/,7034461600,4,2021_22,2021/11/06 05:02:34.558+00,FairfaxCounty,2021/11/06 05:02:34.558+00,FairfaxCounty
-77.419582395392,38.9273413474391,4224,CARSON,MS,Middle School,7-8,13618 MCLEAREN RD,HERNDON,20171,https://carsonms.fcps.edu/,7039253600,5,2021_22,2021/11/06 05:02:34.558+00,FairfaxCounty,2021/11/06 05:02:34.558+00,FairfaxCounty
-77.4207941130319,38.9074949664589,4225,FRANKLIN,MS,Middle School,7-8,3300 LEES CORNER RD,CHANTILLY,20151,https://franklinms.fcps.edu/,7039045100,5,2021_22,2021/11/06 05:02:34.558+00,FairfaxCounty,2021/11/06 05:02:34.558+00,FairfaxCounty
-77.4100489759898,38.8741458975588,4226,ROCKY RUN,MS,Middle School,7-8,4400 STRINGFELLOW RD,CHANTILLY,20151,https://rockyrunms.fcps.edu/,7038027700,5,2021_22,2021/11/06 05:02:34.558+00,FairfaxCounty,2021/11/06 05:02:34.558+00,FairfaxCounty
-77.3272213394246,38.8604920682873,4227,KATHERINE JOHNSON,MS,Middle School,7-8,3801 JERMANTOWN RD,FAIRFAX,22030,https://johnsonms.fcps.edu/,7039342400,5,2021_22,2021/11/06 05:02:34.558+00,FairfaxCounty,2021/11/06 05:02:34.558+00,FairfaxCounty
-77.4548158374425,38.8575210078691,4228,STONE,MS,Middle School,7-8,5500 SULLY PARK DR,CENTREVILLE,20120,https://stonems.fcps.edu/,7036315500,5,2021_22,2021/11/06 05:02:34.558+00,FairfaxCounty,2021/11/06 05:02:34.558+00,FairfaxCounty
-77.2734462657039,38.8361947494168,4229,FROST,MS,Middle School,7-8,4101 PICKETT RD,FAIRFAX,22032,https://frostms.fcps.edu/,7034265700,5,2021_22,2021/11/06 05:02:34.558+00,FairfaxCounty,2021/11/06 05:02:34.558+00,FairfaxCounty
-77.2685353105236,38.8695554998557,4230,STONEHURST,Site,Site,N/A,,,,,,1,2021_22,2021/11/06 05:02:34.558+00,FairfaxCounty,2021/11/06 05:02:34.558+00,FairfaxCounty
-77.1954208066441,38.8677675583003,4231,GRAHAM ROAD COMMUNITY BUILDING,AC,Administrative Center,N/A,"3036 GRAHAM RD
",FALLS CHURCH,22042,https://www.fcps.edu/school-center/graham-road-community-building,5714232303,2,2021_22,2021/11/06 05:02:34.558+00,FairfaxCounty,2021/11/06 05:02:34.558+00,FairfaxCounty
-77.3884965721558,38.783796134463,4232,CLIFTON,Site,Site,N/A,,<NULL>,,<Null>,,4,2021_22,2021/11/06 05:02:34.558+00,FairfaxCounty,2021/11/06 05:02:34.558+00,FairfaxCounty
-77.2256191747136,38.8956684364315,4233,DUNN LORING ADMINISTRATIVE CENTER,AC,Administrative Center,N/A,"2334 GALLOWS RD
",DUNN LORING,22027,https://www.fcps.edu/school-center/dunn-loring-administrative-center,7032044300,2,2021_22,2021/11/06 05:02:34.558+00,FairfaxCounty,2021/11/06 05:02:34.558+00,FairfaxCounty
-77.2017640142729,38.85734468408,4234,LEIS CENTER,AC,Administrative Center,N/A,"7423 CAMP ALGER AVE
","FALLS CHURCH
",22042,https://www.fcps.edu/school-center/leis-center,7032087770,2,2021_22,2021/11/06 05:02:34.558+00,FairfaxCounty,2021/11/06 05:02:34.558+00,FairfaxCounty
-77.2364781071726,38.8268265294463,4235,SPRAGUE TECHNOLOGY CENTER,AC,Administrative Center,N/A,"4414 HOLBORN AVE
",ANNANDALE,22003,https://www.fcps.edu/school-center/sprague-technology-center,7035031600,5,2021_22,2021/11/06 05:02:34.558+00,FairfaxCounty,2021/11/06 05:02:34.558+00,FairfaxCounty
-77.1815587489145,38.8061220178399,4236,PLUM CENTER,AC,Administrative Center,N/A,6815 EDSALL RD,SPRINGFIELD,22151,https://www.fcps.edu/registration/adult-and-community-education-registration,7036581201,3,2021_22,2021/11/06 05:02:34.558+00,FairfaxCounty,2021/11/06 05:02:34.558+00,FairfaxCounty
-77.3031238324374,38.8192407308229,4237,ROBINSON HS - SIDEBURN SUPPORT CENTER,SC,Support Center,N/A,"5025 SIDEBURN RD
","FAIRFAX
",22032,https://www.fcps.edu/school-center/sideburn-support-center,7037642405,4,2021_22,2021/11/06 05:02:34.558+00,FairfaxCounty,2021/11/06 05:02:34.558+00,FairfaxCounty
-77.0962709467707,38.7910516716716,4238,WILTON WOODS CENTER,AC,Administrative Center,N/A,3701 FRANCONIA RD,ALEXANDRIA,22310,https://www.fcps.edu/school-center/wilton-woods-center,7033297400,3,2021_22,2021/11/06 05:02:34.558+00,FairfaxCounty,2021/11/06 05:02:34.558+00,FairfaxCounty
-77.1023309581883,38.7744990568373,4239,VIRGINIA HILLS CENTER,AC,Administrative Center,N/A,"6520 DIANA LN
","ALEXANDRIA
",22310,https://www.fcps.edu/school-center/virginia-hills-center,7033171400,3,2021_22,2021/11/06 05:02:34.558+00,FairfaxCounty,2021/11/06 05:02:34.558+00,FairfaxCounty
-77.204960900057,38.9165878335218,4240,PIMMIT HILLS CENTER,AC,Administrative Center,N/A,"7510 LISLE AVE
","FALLS CHURCH
",22043,https://www.fcps.edu/school-center/pimmit-hills-center-early-childhood-special-e,7035062250,2,2021_22,2021/11/06 05:02:34.558+00,FairfaxCounty,2021/11/06 05:02:34.558+00,FairfaxCounty
-77.22553081714,38.7039104028134,4241,LORTON TRANSPORTATION CENTER,AC,Administrative Center,N/A,8101 LORTON RD,"LORTON
",22079,https://www.fcps.edu/school-center/lorton-center,7034462000,4,2021_22,2021/11/06 05:02:34.558+00,FairfaxCounty,2021/11/06 05:02:34.558+00,FairfaxCounty
-77.2241623827519,38.8685490345564,4242,GATEHOUSE ADMINISTRATIVE CENTER,AC,Administrative Center,N/A,"8115 GATEHOUSE RD
","FALLS CHURCH
",22042,https://www.fcps.edu/school-center/gatehouse-administration-center,5714233000,2,2021_22,2021/11/06 05:02:34.558+00,FairfaxCounty,2021/11/06 05:02:34.558+00,FairfaxCounty
-77.2290733943319,38.8646721975139,4243,WILLOW OAKS ADMINISTRATIVE CENTER,AC,Administrative Center,N/A,8270 WILLOW OAKS CORPORATE DR,FAIRFAX,22031,https://www.fcps.edu/school-center/willow-oaks-administrative-center,5714234900,2,2021_22,2021/11/06 05:02:34.558+00,FairfaxCounty,2021/11/06 05:02:34.558+00,FairfaxCounty
-77.1796332930496,38.7992433325559,4244,FORTE SUPPORT CENTER,SC,Support Center,N/A,6800B INDUSTRIAL RD,SPRINGFIELD,22151,https://www.fcps.edu/school-center/forte-support-center-inventory-management-and,7036583640,3,2021_22,2021/11/06 05:02:34.558+00,FairfaxCounty,2021/11/06 05:02:34.558+00,FairfaxCounty
-77.4641080552167,38.8886073092104,4245,STONECROFT TRANSPORTATION CENTER,AC,Administrative Center,N/A,4641 STONECROFT BLVD,CHANTILLY,20151,https://www.fcps.edu/school-center/stonecroft-transportation-center,7032497100,5,2021_22,2021/11/06 05:02:34.558+00,FairfaxCounty,2021/11/06 05:02:34.558+00,FairfaxCounty
-77.261945151165,38.900051299999,4246,WATERS AND CAFFI FIELDS,Site,Site,N/A,,,,,,1,2021_22,2021/11/06 05:02:34.558+00,FairfaxCounty,2021/11/06 05:02:34.558+00,FairfaxCounty
-77.4723159863353,38.8907883479829,4247,"""WESTFIELD ES SITE""",FE,Future Elementary School,N/A,,,,,,5,2021_22,2021/11/06 05:02:34.558+00,FairfaxCounty,2021/11/06 05:02:34.558+00,FairfaxCounty
-77.1051410111881,38.7355982076353,4248,"""ROUTE 1 ES SITE""",FE,Future Elementary School,N/A,,,,,,3,2021_22,2021/11/06 05:02:34.558+00,FairfaxCounty,2021/11/06 05:02:34.558+00,FairfaxCounty
-77.2239964440999,38.9307306813646,4249,"""TYSONS ES SITE""",FE,Future Elementary School,N/A,,,,,,2,2021_22,2021/11/06 05:02:34.558+00,FairfaxCounty,2021/11/06 05:02:34.558+00,FairfaxCounty
-77.1749521558544,38.7977363145095,4250,INDUSTRIAL ROAD,Site,Site,N/A,,,,,,3,2021_22,2021/11/06 05:02:34.558+00,FairfaxCounty,2021/11/06 05:02:34.558+00,FairfaxCounty
-77.2725258819115,38.8459170698945,4251,PICKETT ANEX,Site,Site,N/A,,,,,,5,2021_22,2021/11/06 05:02:34.558+00,FairfaxCounty,2021/11/06 05:02:34.558+00,FairfaxCounty
-77.3715540426458,38.9612911094895,4252,HERNDON SUPPORT CENTER,SC,Support Center,N/A,397 HERNDON PKWY,HERNDON,20170,https://www.fcps.edu/school-center/herndon-support-center,7034675200,1,2021_22,2021/11/06 05:02:34.558+00,FairfaxCounty,2021/11/06 05:02:34.558+00,FairfaxCounty
-77.236371580498,38.8650417963933,4253,MERRIFIELD SUPPORT CENTER,SC,Support Center,N/A,8415 ARLINGTON BLVD,FAIRFAX,22031,https://www.fcps.edu/school-center/merrifield-support-center,5719821100,5,2021_22,2021/11/06 05:02:34.558+00,FairfaxCounty,2021/11/06 05:02:34.558+00,FairfaxCounty
-77.1343139112001,38.7821365527199,4254,EDISON HS - SUPPORT CENTER,SC,Support Center,N/A,5801 FRANCONIA RD,ALEXANDRIA,22310,https://www.fcps.edu/school-center/edison-support-center,7033136000,3,2021_22,2021/11/06 05:02:34.558+00,FairfaxCounty,2021/11/06 05:02:34.558+00,FairfaxCounty
-77.2748479618983,38.8403101727488,4255,WOODSON HS - SUPPORT CENTER,SC,Support Center,N/A,9515 MAIN ST,FAIRFAX,22032,https://www.fcps.edu/school-center/woodson-support-center,7037643500,5,2021_22,2021/11/06 05:02:34.558+00,FairfaxCounty,2021/11/06 05:02:34.558+00,FairfaxCounty
-77.1779467823602,38.7985628296759,4256,IPSC INSTRUCTIONAL PROGRAM SUPPORT CENTER,SC,Support Center,N/A,6732 INDUSTRIAL RD,SPRINGFIELD,22151,https://www.fcps.edu/school-center/ipsc-instructional-program-support-center,7039166968,3,2021_22,2021/11/06 05:02:34.558+00,FairfaxCounty,2021/11/06 05:02:34.558+00,FairfaxCounty
-77.1825170245065,38.8014554982504,4257,ENERGY ZONE CENTER,AC,Administrative Center,N/A,6880 COMMERCIAL DR,SPRINGFIELD,22151,https://www.fcps.edu/school-center/energy-zone-center,7038134800,3,2021_22,2021/11/06 05:02:34.558+00,FairfaxCounty,2021/11/06 05:02:34.558+00,FairfaxCounty
-77.2196220034501,38.8075846155498,4258,FORBES CENTER,AC,Administrative Center,N/A,8001 FORBES PL,SPRINGFIELD,22151,https://www.fcps.edu/school-center/forbes-center,7034263900,4,2021_22,2021/11/06 05:02:34.558+00,FairfaxCounty,2021/11/06 05:02:34.558+00,FairfaxCounty
-77.4149554399347,38.8430813699576,4259,LELAND HOUSE,IAS,Interagency Alternative School,N/A,13525 LELAND RD,CENTREVILLE,20120,https://www.fcps.edu/school-center/leland-house,5714234360,4,2021_22,2021/11/06 05:02:34.558+00,FairfaxCounty,2021/11/06 05:02:34.558+00,FairfaxCounty
-77.3870431034473,38.8430921760545,4260,FOUNDATION,IAS,Interagency Alternative School,N/A,12720 LEE HWY,FAIRFAX,22030,https://www.fcps.edu/committee/foundation-fairfax-county-public-schools,5714231031,5,2021_22,2021/11/06 05:02:34.558+00,FairfaxCounty,2021/11/06 05:02:34.558+00,FairfaxCounty
-77.208860440639,38.8318406710722,4261,TSRC ANNANDALE,IAS,Interagency Alternative School,N/A,7611 LITTLE RIVER TPKE,ANNANDALE,22003,https://www.fcps.edu/school-center/transition-support-resource-center-annandale,5714234360,2,2021_22,2021/11/06 05:02:34.558+00,FairfaxCounty,2021/11/06 05:02:34.558+00,FairfaxCounty
-77.1041203462884,38.7315049114464,4262,GUNSTON ALTERNATIVE SCHOOL,IAS,Interagency Alternative School,N/A,8350 RICHMOND HWY,ALEXANDRIA,22309,https://www.fcps.edu/school-center/gunston-alternative-school,5714234360,3,2021_22,2021/11/06 05:02:34.558+00,FairfaxCounty,2021/11/06 05:02:34.558+00,FairfaxCounty
-77.37412151456,38.9696053395134,4263,HERNDON ACE,IAS,Interagency Alternative School,N/A,400 ELDEN ST,HERNDON,20170,https://www.fcps.edu/school-center/adult-and-community-education-ace-learning-ce,7036582790,1,2021_22,2021/11/06 05:02:34.558+00,FairfaxCounty,2021/11/06 05:02:34.558+00,FairfaxCounty
-77.3034459995078,38.8165825310829,4264,ROBINSON HS - TSRC,IAS,Interagency Alternative School,N/A,5035 SIDEBURN RD,FAIRFAX,22032,<Null>,,4,2021_22,2021/11/06 05:02:34.558+00,FairfaxCounty,2021/11/06 05:02:34.558+00,FairfaxCounty
-77.3143177188457,38.8451547977705,4265,JUVENILE COURT SHELTER CARE,IAS,Interagency Alternative School,N/A,10670 PAGE AVE,FAIRFAX,22030,https://www.fcps.edu/school-center/juvenile-court-shelter-care-interagency-alter,5714234360,5,2021_22,2021/11/06 05:02:34.558+00,FairfaxCounty,2021/11/06 05:02:34.558+00,FairfaxCounty
-77.3137880577422,38.8451847332236,4266,STEPPING STONES,IAS,Interagency Alternative School,N/A,10650 PAGE AVE,FAIRFAX,22030,https://www.fcps.edu/school-center/stepping-stones,5714234360,5,2021_22,2021/11/06 05:02:34.558+00,FairfaxCounty,2021/11/06 05:02:34.558+00,FairfaxCounty
-77.3072138092601,38.8458336292873,4267,GRANTS - CENTRAL,IAS,Interagency Alternative School,N/A,4000 CHAIN BRIDGE RD,FAIRFAX,22030,https://www.fcps.edu/school-center/grants-central-interagency-alternative-school,5714234360,5,2021_22,2021/11/06 05:02:34.558+00,FairfaxCounty,2021/11/06 05:02:34.558+00,FairfaxCounty
-77.3112889223592,38.8439566274663,4268,ADULT DETENTION CENTER,IAS,Interagency Alternative School,N/A,10520 JUDICIAL DR,FAIRFAX,22030,https://www.fcps.edu/school-center/fairfax-adult-detention-center,5714234360,5,2021_22,2021/11/06 05:02:34.558+00,FairfaxCounty,2021/11/06 05:02:34.558+00,FairfaxCounty
-77.1631614325372,38.8143113379425,4269,HOLMES MS - MONTROSE ALC,AC,Nontraditional School,7-8,6525 MONTROSE ST,ALEXANDRIA,22312,https://www.fcps.edu/school-center/montrose-alternative-learning-center,7036585800,2,2021_22,2021/11/06 05:02:34.558+00,FairfaxCounty,2021/11/06 05:02:34.558+00,FairfaxCounty
-77.1343139112001,38.7821365527199,4270,EDISON HS - TSRC,IAS,Interagency Alternative School,N/A,5801 FRANCONIA RD,ALEXANDRIA,22310,,,3,2021_22,2021/11/06 05:02:34.558+00,FairfaxCounty,2021/11/06 05:02:34.558+00,FairfaxCounty
-77.2386371363311,38.7170640870283,4271,SOUTH COUNTY HS - TSRC,IAS,Interagency Alternative School,N/A,8501 SILVERBROOK RD,LORTON,22079,,,4,2021_22,2021/11/06 05:02:34.558+00,FairfaxCounty,2021/11/06 05:02:34.558+00,FairfaxCounty
-77.4651363066724,38.885568053902,4272,WESTFIELD HS - GRANTS WEST,IAS,Interagency Alternative School,N/A,4700 STONECROFT BLVD,CHANTILLY,20151,https://www.fcps.edu/school-center/grants-west-interagency-alternative-school-pr,5714234360,5,2021_22,2021/11/06 05:02:34.558+00,FairfaxCounty,2021/11/06 05:02:34.558+00,FairfaxCounty
-77.1497497145092,38.8568790136441,4273,TSRC JUSTICE,IAS,Interagency Alternative School,N/A,3301 PEACE VALLEY LN,FALLS CHURCH,22044,,,2,2021_22,2021/11/06 05:02:34.558+00,FairfaxCounty,2021/11/06 05:02:34.558+00,FairfaxCounty
-77.2126907685968,38.9060535578682,4274,MARSHALL HS - TSRC,IAS,Interagency Alternative School,N/A,7731 LEESBURG PIKE,FALLS CHURCH,22043,,,2,2021_22,2021/11/06 05:02:34.558+00,FairfaxCounty,2021/11/06 05:02:34.558+00,FairfaxCounty
-77.3393396732138,38.9324610175248,4275,SOUTH LAKES HS - TSRC,IAS,Interagency Alternative School,N/A,11400 SOUTH LAKES DR,RESTON,20191,,,1,2021_22,2021/11/06 05:02:34.558+00,FairfaxCounty,2021/11/06 05:02:34.558+00,FairfaxCounty
-77.0722821165054,38.7743048384616,4276,WEST POTOMAC HS - PULLEY CENTER,SEC,Special Education Center,N/A,6500 QUANDER RD,ALEXANDRIA,22307,https://pulleycenter.fcps.edu/,7037182700,3,2021_22,2021/11/06 05:02:34.558+00,FairfaxCounty,2021/11/06 05:02:34.558+00,FairfaxCounty
-77.2126907685968,38.9060535578682,4277,MARSHALL HS - DAVIS CENTER,SEC,Special Education Center,N/A,7731 LEESBURG PIKE,FALLS CHURCH,22043,https://daviscenter.fcps.edu/,7037145600,2,2021_22,2021/11/06 05:02:34.558+00,FairfaxCounty,2021/11/06 05:02:34.558+00,FairfaxCounty
-77.2453963093133,38.8839034974423,4278,CEDAR LANE SCHOOL,SEC,Special Education Center,N/A,101 CEDAR LN,VIENNA,22180,https://cedarlaneschool.fcps.edu/,7032082400,1,2021_22,2021/11/06 05:02:34.558+00,FairfaxCounty,2021/11/06 05:02:34.558+00,FairfaxCounty
-77.0706713769839,38.7787889491945,4279,QUANDER ROAD SCHOOL,SEC,Special Education Center,N/A,"6400 QUANDER RD
",ALEXANDRIA,22307,https://quanderroadschool.fcps.edu/,7037182400,3,2021_22,2021/11/06 05:02:34.558+00,FairfaxCounty,2021/11/06 05:02:34.558+00,FairfaxCounty
-77.2786133217813,38.7839851667542,4280,BURKE SCHOOL,SEC,Special Education Center,N/A,"9645 BURKE LAKE RD
9645 BURKE LAKE RD",BURKE,22015,https://burkeschool.fcps.edu/,7034267300,4,2021_22,2021/11/06 05:02:34.558+00,FairfaxCounty,2021/11/06 05:02:34.558+00,FairfaxCounty
-77.1617578984587,38.7803824351401,4281,KEY MS - KEY CENTER,AC,Special Education Center,7-8,6402 FRANCONIA RD,SPRINGFIELD,22150,https://keycenter.fcps.edu/,7033134000,3,2021_22,2021/11/06 05:02:34.558+00,FairfaxCounty,2021/11/06 05:02:34.558+00,FairfaxCounty
-77.2251536271612,38.90402451049,4282,KILMER MS - KILMER CENTER,AC,Special Education Center,7-8,8100 WOLFTRAP RD,VIENNA,22182,https://kilmercenter.fcps.edu/,5712268440,2,2021_22,2021/11/06 05:02:34.558+00,FairfaxCounty,2021/11/06 05:02:34.558+00,FairfaxCounty
-77.4254570059247,38.8374998564951,4283,MOUNTAIN VIEW,HS,High School,9-12,"5775 SPINDLE CT
",CENTREVILLE,20121,https://mountainviewhs.fcps.edu/,7032272316,4,2021_22,2021/11/06 05:02:34.558+00,FairfaxCounty,2021/11/06 05:02:34.558+00,FairfaxCounty
-77.0801314762016,38.7644477010259,4284,BRYANT,HS,High School,K-12,"2709 POPKINS LN
",ALEXANDRIA,22306,https://bryanths.fcps.edu/,7036602001,3,2021_22,2021/11/06 05:02:34.558+00,FairfaxCounty,2021/11/06 05:02:34.558+00,FairfaxCounty
-77.4032328559566,38.9475142375897,4285,MCNAIR UPPER,ES,Elementary School,3-6,2410 FOX MILL RD,HERNDON,20171,https://mcnaires.fcps.edu/,7037934800,5,2021_22,2021/11/06 05:02:34.558+00,FairfaxCounty,2021/11/06 05:02:34.558+00,FairfaxCounty
-77.2453963093133,38.8839034974423,4286,TSRC VIENNA,IAS,Interagency Alternative,N/A,101 CEDAR LN,VIENNA,22180,,,1,2021_22,2021/11/06 05:02:34.558+00,FairfaxCounty,2021/11/06 05:02:34.558+00,FairfaxCounty
-77.3072138092601,38.8458336292873,4287,ISP I-FAIRFAX,IAS,Interagency Alternative School,N/A,4000 CHAIN BRIDGE RD,FAIRFAX,22030,,,5,2021_22,2021/11/06 05:02:34.558+00,FairfaxCounty,2021/11/06 05:02:34.558+00,FairfaxCounty
-77.3072138092601,38.8458336292873,4288,SAGER SCHOOL,IAS,Interagency Alternative School,N/A,4000 CHAIN BRIDGE RD,FAIRFAX,22030,https://www.fcps.edu/school-center/sager-school,5714234360,5,2021_22,2021/11/06 05:02:34.558+00,FairfaxCounty,2021/11/06 05:02:34.558+00,FairfaxCounty
-77.3072138092601,38.8458336292873,4289,TSRC FAIRFAX,IAS,Interagency Alternative School,N/A,4000 CHAIN BRIDGE RD,FAIRFAX,22030,,,5,2021_22,2021/11/06 05:02:34.558+00,FairfaxCounty,2021/11/06 05:02:34.558+00,FairfaxCounty
-77.4651363066724,38.885568053902,4290,WESTFIELD HS - TSRC,IAS,Interagency Alternative School,N/A,4700 STONECROFT BLVD,CHANTILLY,20151,,,5,2021_22,2021/11/06 05:02:34.558+00,FairfaxCounty,2021/11/06 05:02:34.558+00,FairfaxCounty
-77.1041203462884,38.7315049114464,4291,ISP LL - ALEXANDRIA,IAS,Interagency Alternative School,N/A,8350 RICHMOND HWY,ALEXANDRIA,22309,,,3,2021_22,2021/11/06 05:02:34.558+00,FairfaxCounty,2021/11/06 05:02:34.558+00,FairfaxCounty
-77.4254570059247,38.8374998564951,4292,MOUNTAIN VIEW HS - ALC/AIM/IAS,AC,Nontraditional School,N/A,5775 SPINDLE CT ,CENTREVILLE,20121,,,4,2021_22,2021/11/06 05:02:34.558+00,FairfaxCounty,2021/11/06 05:02:34.558+00,FairfaxCounty
-77.4755281043991,38.8286628480282,4293,BULL RUN ES - EC RESOURCE CENTER,AC,Support Center,N/A,15301 LEE HWY,CENTREVILLE,20121,https://www.fcps.edu/registration/early-childhood-prek/early-childhood-child-find,7034562200,5,2021_22,2021/11/06 05:02:34.558+00,FairfaxCounty,2021/11/06 05:02:34.558+00,FairfaxCounty
-77.2256191747136,38.8956684364315,4294,"""DUNN LORING ES SITE""",FE,Future Elementary School,N/A,,<NULL>,,<Null>,,2,2021_22,2021/11/06 05:02:34.558+00,FairfaxCounty,2021/11/06 05:02:34.558+00,FairfaxCounty
